{"type": "FeatureCollection", "features": [ {"type": "Feature", "properties": {"norad_id": 54234, "name": "NOAA 21 (JPSS-2)", "group": "weather", "lat": -79.83839580674145, "lon": -21.258231669032565, "alt_km": 835.3732670337804, "timestamp": "2025-12-09T04:51:47.151739+00:00", "meta": {"OBJECT_NAME": "NOAA 21 (JPSS-2)", "OBJECT_ID": "2022-150A", "EPOCH": "2025-12-08T19:06:43.826112", "MEAN_MOTION": 14.19522752, "ECCENTRICITY": 0.0002372, "INCLINATION": 98.7457, "RA_OF_ASC_NODE": 279.1539, "ARG_OF_PERICENTER": 45.7005, "MEAN_ANOMALY": 314.4365, "EPHEMERIS_TYPE": 0, "CLASSIFICATION_TYPE": "U", "NORAD_CAT_ID": 54234, "ELEMENT_SET_NO": 999, "REV_AT_EPOCH": 15953, "BSTAR": 0.00013534, "MEAN_MOTION_DOT": 2.41e-06, "MEAN_MOTION_DDOT": 0}, "tle": {"line1": "1 54234U 22150A   25342.79634058  .00000241  00000+0  13534-3 0  9991", "line2": "2 54234  98.7457 279.1539 0002372  45.7005 314.4365 14.19522752159538"}}, "geometry": {"type": "Point", "coordinates": [-21.258231669032565, -79.83839580674145]}}, {"type": "Feature", "properties": {"norad_id": 54743, "name": "METEOSAT-12 (MTG-I1)", "group": "weather", "lat": 0.6339865230917991, "lon": 150.9040106333603, "alt_km": 35786.55452584003, "timestamp": "2025-12-09T04:51:47.151751+00:00", "meta": {"OBJECT_NAME": "METEOSAT-12 (MTG-I1)", "OBJECT_ID": "2022-170C", "EPOCH": "2025-12-08T18:44:23.832096", "MEAN_MOTION": 1.00275009, "ECCENTRICITY": 0.0001468, "INCLINATION": 0.726, "RA_OF_ASC_NODE": 30.9723, "ARG_OF_PERICENTER": 223.6162, "MEAN_ANOMALY": 104.0649, "EPHEMERIS_TYPE": 0, "CLASSIFICATION_TYPE": "U", "NORAD_CAT_ID": 54743, "ELEMENT_SET_NO": 999, "REV_AT_EPOCH": 1106, "BSTAR": 0, "MEAN_MOTION_DOT": -4e-08, "MEAN_MOTION_DDOT": 0}, "tle": {"line1": "1 54743U 22170C   25342.78083139 -.00000004  00000+0  00000+0 0  9993", "line2": "2 54743   0.7260  30.9723 0001468 223.6162 104.0649  1.00275009 11061"}}, "geometry": {"type": "Point", "coordinates": [150.9040106333603, 0.6339865230917991]}}, {"type": "Feature", "properties": {"norad_id": 55973, "name": "TIANMU-1 03", "group": "weather", "lat": 78.50152010353823, "lon": 6.192873611407576, "alt_km": 433.8134530602092, "timestamp": "2025-12-09T04:51:47.151765+00:00", "meta": {"OBJECT_NAME": "TIANMU-1 03", "OBJECT_ID": "2023-039A", "EPOCH": "2025-12-08T20:38:35.308896", "MEAN_MOTION": 15.40750757, "ECCENTRICITY": 0.0004514, "INCLINATION": 97.5111, "RA_OF_ASC_NODE": 145.4041, "ARG_OF_PERICENTER": 72.1177, "MEAN_ANOMALY": 288.0561, "EPHEMERIS_TYPE": 0, "CLASSIFICATION_TYPE": "U", "NORAD_CAT_ID": 55973, "ELEMENT_SET_NO": 999, "REV_AT_EPOCH": 15146, "BSTAR": 0.00052779, "MEAN_MOTION_DOT": 0.00021537, "MEAN_MOTION_DDOT": 0}, "tle": {"line1": "1 55973U 23039A   25342.86013089  .00021537  00000+0  52779-3 0  9997", "line2": "2 55973  97.5111 145.4041 0004514  72.1177 288.0561 15.40750757151461"}}, "geometry": {"type": "Point", "coordinates": [6.192873611407576, 78.50152010353823]}}, {"type": "Feature", "properties": {"norad_id": 55974, "name": "TIANMU-1 04", "group": "weather", "lat": -28.27099268030463, "lon": -39.11692783263613, "alt_km": 451.59150734613377, "timestamp": "2025-12-09T04:51:47.151775+00:00", "meta": {"OBJECT_NAME": "TIANMU-1 04", "OBJECT_ID": "2023-039B", "EPOCH": "2025-12-08T20:10:12.269856", "MEAN_MOTION": 15.4108376, "ECCENTRICITY": 0.0005179, "INCLINATION": 97.5044, "RA_OF_ASC_NODE": 144.5764, "ARG_OF_PERICENTER": 67.5905, "MEAN_ANOMALY": 292.589, "EPHEMERIS_TYPE": 0, "CLASSIFICATION_TYPE": "U", "NORAD_CAT_ID": 55974, "ELEMENT_SET_NO": 999, "REV_AT_EPOCH": 15146, "BSTAR": 0.00051295, "MEAN_MOTION_DOT": 0.00021163, "MEAN_MOTION_DDOT": 0}, "tle": {"line1": "1 55974U 23039B   25342.84041979  .00021163  00000+0  51295-3 0  9992", "line2": "2 55974  97.5044 144.5764 0005179  67.5905 292.5890 15.41083760151463"}}, "geometry": {"type": "Point", "coordinates": [-39.11692783263613, -28.27099268030463]}}, {"type": "Feature", "properties": {"norad_id": 55975, "name": "TIANMU-1 05", "group": "weather", "lat": -64.11867294348335, "lon": -50.33535796980916, "alt_km": 453.98056716078554, "timestamp": "2025-12-09T04:51:47.151786+00:00", "meta": {"OBJECT_NAME": "TIANMU-1 05", "OBJECT_ID": "2023-039C", "EPOCH": "2025-12-08T20:00:32.527584", "MEAN_MOTION": 15.4070716, "ECCENTRICITY": 0.0004375, "INCLINATION": 97.509, "RA_OF_ASC_NODE": 145.0616, "ARG_OF_PERICENTER": 88.6368, "MEAN_ANOMALY": 271.538, "EPHEMERIS_TYPE": 0, "CLASSIFICATION_TYPE": "U", "NORAD_CAT_ID": 55975, "ELEMENT_SET_NO": 999, "REV_AT_EPOCH": 15144, "BSTAR": 0.00051255, "MEAN_MOTION_DOT": 0.00020881, "MEAN_MOTION_DDOT": 0}, "tle": {"line1": "1 55975U 23039C   25342.83370981  .00020881  00000+0  51255-3 0  9992", "line2": "2 55975  97.5090 145.0616 0004375  88.6368 271.5380 15.40707160151446"}}, "geometry": {"type": "Point", "coordinates": [-50.33535796980916, -64.11867294348335]}}, {"type": "Feature", "properties": {"norad_id": 55976, "name": "TIANMU-1 06", "group": "weather", "lat": -15.696810448141475, "lon": -36.22186220920229, "alt_km": 448.85215945750224, "timestamp": "2025-12-09T04:51:47.151796+00:00", "meta": {"OBJECT_NAME": "TIANMU-1 06", "OBJECT_ID": "2023-039D", "EPOCH": "2025-12-08T20:13:31.577376", "MEAN_MOTION": 15.41136287, "ECCENTRICITY": 0.0004691, "INCLINATION": 97.5101, "RA_OF_ASC_NODE": 145.5329, "ARG_OF_PERICENTER": 84.2319, "MEAN_ANOMALY": 275.9462, "EPHEMERIS_TYPE": 0, "CLASSIFICATION_TYPE": "U", "NORAD_CAT_ID": 55976, "ELEMENT_SET_NO": 999, "REV_AT_EPOCH": 15146, "BSTAR": 0.00051183, "MEAN_MOTION_DOT": 0.00021152, "MEAN_MOTION_DDOT": 0}, "tle": {"line1": "1 55976U 23039D   25342.84272659  .00021152  00000+0  51183-3 0  9999", "line2": "2 55976  97.5101 145.5329 0004691  84.2319 275.9462 15.41136287151463"}}, "geometry": {"type": "Point", "coordinates": [-36.22186220920229, -15.696810448141475]}}, {"type": "Feature", "properties": {"norad_id": 56232, "name": "FENGYUN 3G", "group": "weather", "lat": 49.966744117065666, "lon": -23.04662221596239, "alt_km": 395.2221421809063, "timestamp": "2025-12-09T04:51:47.151806+00:00", "meta": {"OBJECT_NAME": "FENGYUN 3G", "OBJECT_ID": "2023-055A", "EPOCH": "2025-12-08T20:45:16.542720", "MEAN_MOTION": 15.53294978, "ECCENTRICITY": 0.0009245, "INCLINATION": 49.9937, "RA_OF_ASC_NODE": 247.4467, "ARG_OF_PERICENTER": 130.1186, "MEAN_ANOMALY": 230.0593, "EPHEMERIS_TYPE": 0, "CLASSIFICATION_TYPE": "U", "NORAD_CAT_ID": 56232, "ELEMENT_SET_NO": 999, "REV_AT_EPOCH": 15042, "BSTAR": 0.00061782, "MEAN_MOTION_DOT": 0.00039524, "MEAN_MOTION_DDOT": 0}, "tle": {"line1": "1 56232U 23055A   25342.86477480  .00039524  00000+0  61782-3 0  9992", "line2": "2 56232  49.9937 247.4467 0009245 130.1186 230.0593 15.53294978150422"}}, "geometry": {"type": "Point", "coordinates": [-23.04662221596239, 49.966744117065666]}}, {"type": "Feature", "properties": {"norad_id": 57166, "name": "METEOR-M2 3", "group": "weather", "lat": 54.39402474876094, "lon": -130.9397574787787, "alt_km": 807.4127172393328, "timestamp": "2025-12-09T04:51:47.151816+00:00", "meta": {"OBJECT_NAME": "METEOR-M2 3", "OBJECT_ID": "2023-091A", "EPOCH": "2025-12-08T19:50:55.032576", "MEAN_MOTION": 14.24025445, "ECCENTRICITY": 0.0004132, "INCLINATION": 98.6384, "RA_OF_ASC_NODE": 36.4346, "ARG_OF_PERICENTER": 19.5978, "MEAN_ANOMALY": 340.5359, "EPHEMERIS_TYPE": 0, "CLASSIFICATION_TYPE": "U", "NORAD_CAT_ID": 57166, "ELEMENT_SET_NO": 999, "REV_AT_EPOCH": 12742, "BSTAR": 4.2182e-05, "MEAN_MOTION_DOT": 5.3e-07, "MEAN_MOTION_DDOT": 0}, "tle": {"line1": "1 57166U 23091A   25342.82702584  .00000053  00000+0  42182-4 0  9990", "line2": "2 57166  98.6384  36.4346 0004132  19.5978 340.5359 14.24025445127426"}}, "geometry": {"type": "Point", "coordinates": [-130.9397574787787, 54.39402474876094]}}, {"type": "Feature", "properties": {"norad_id": 57399, "name": "TIANMU-1 07", "group": "weather", "lat": 68.25689662999905, "lon": 14.414259242633811, "alt_km": 471.5728452974945, "timestamp": "2025-12-09T04:51:47.151826+00:00", "meta": {"OBJECT_NAME": "TIANMU-1 07", "OBJECT_ID": "2023-101A", "EPOCH": "2025-12-08T20:42:06.752160", "MEAN_MOTION": 15.27986697, "ECCENTRICITY": 0.0005644, "INCLINATION": 97.2876, "RA_OF_ASC_NODE": 32.7978, "ARG_OF_PERICENTER": 91.2701, "MEAN_ANOMALY": 268.9185, "EPHEMERIS_TYPE": 0, "CLASSIFICATION_TYPE": "U", "NORAD_CAT_ID": 57399, "ELEMENT_SET_NO": 999, "REV_AT_EPOCH": 13256, "BSTAR": 0.00040718, "MEAN_MOTION_DOT": 0.00011055, "MEAN_MOTION_DDOT": 0}, "tle": {"line1": "1 57399U 23101A   25342.86257815  .00011055  00000+0  40718-3 0  9992", "line2": "2 57399  97.2876  32.7978 0005644  91.2701 268.9185 15.27986697132565"}}, "geometry": {"type": "Point", "coordinates": [14.414259242633811, 68.25689662999905]}}, {"type": "Feature", "properties": {"norad_id": 57400, "name": "TIANMU-1 08", "group": "weather", "lat": -70.19615835194553, "lon": -167.88449246931205, "alt_km": 493.97944810202534, "timestamp": "2025-12-09T04:51:47.151837+00:00", "meta": {"OBJECT_NAME": "TIANMU-1 08", "OBJECT_ID": "2023-101B", "EPOCH": "2025-12-08T19:54:27.206784", "MEAN_MOTION": 15.27970126, "ECCENTRICITY": 0.0007562, "INCLINATION": 97.2865, "RA_OF_ASC_NODE": 32.5643, "ARG_OF_PERICENTER": 94.7004, "MEAN_ANOMALY": 265.51, "EPHEMERIS_TYPE": 0, "CLASSIFICATION_TYPE": "U", "NORAD_CAT_ID": 57400, "ELEMENT_SET_NO": 999, "REV_AT_EPOCH": 13255, "BSTAR": 0.00042171, "MEAN_MOTION_DOT": 0.00011451, "MEAN_MOTION_DDOT": 0}, "tle": {"line1": "1 57400U 23101B   25342.82948156  .00011451  00000+0  42171-3 0  9991", "line2": "2 57400  97.2865  32.5643 0007562  94.7004 265.5100 15.27970126132557"}}, "geometry": {"type": "Point", "coordinates": [-167.88449246931205, -70.19615835194553]}}]}